SL-3 R/B                
1 13403U 82079B   26034.27435999  .00005689  00000+0  22991-3 0  9993
2 13403  81.1436 233.7026 0024242 283.5177  76.3355 15.24299950372452
SL-14 R/B               
1 13553U 82092B   26034.18785431  .00000608  00000+0  65464-4 0  9992
2 13553  82.5697 173.6599 0021630  58.0969  32.9985 14.86625351323808
SL-3 R/B                
1 13819U 83010B   26034.06255915  .00014505  00000+0  30381-3 0  9994
2 13819  81.1014  44.6635 0017502 162.1384 198.0479 15.45129567352594
SL-3 R/B                
1 14208U 83075B   26034.20362767  .00013501  00000+0  36623-3 0  9998
2 14208  97.6121  37.5053 0021953 358.8916   1.2275 15.37504127324850
COSMOS 1536             
1 14699U 84013A   26034.04262951  .00007582  00000+0  31686-3 0  9997
2 14699  82.5479 142.2690 0015278  48.8912 311.3641 15.23345408267341
SL-14 R/B               
1 14820U 84027B   26034.14864196  .00000489  00000+0  53102-4 0  9995
2 14820  82.5410 277.4143 0019557  88.0108 272.3348 14.85941514242501
SL-8 R/B                
1 15483U 85006B   26034.23536336  .00000297  00000+0  10729-3 0  9995
2 15483  74.0475 324.5455 0019610 248.7847 273.2335 14.37764739149072
SL-12 R/B(2)            
1 15772U 85042D   26033.74911102  .00000107  00000+0  69711-4 0  9995
2 15772  71.1082 161.5457 0035309 183.7401 323.8294 14.21971618109423
SL-14 R/B               
1 15945U 85069B   26034.14387996  .00000516  00000+0  55604-4 0  9999
2 15945  82.5239  57.4256 0017543 310.1352  49.8326 14.86391215167702
SL-16 R/B               
1 16182U 85097B   26034.26719557  .00000197  00000+0  12253-3 0  9996
2 16182  71.0012 213.0188 0009367 300.1340 233.6253 14.16595205 82350
SL-14 R/B               
1 16496U 86006B   26034.13000453  .00000841  00000+0  86606-4 0  9999
2 16496  82.5278 292.2642 0077427  28.3158 332.2233 14.86764419144075
COSMOS 1743             
1 16719U 86034A   26034.26427078  .00036195  00000+0  51769-3 0  9990
2 16719  82.5339 109.8877 0005303  67.0468 293.1346 15.56033742174891
