CCSDS_OMM_VERS = 2.0
CREATION_DATE  = 
ORIGINATOR     = 

OBJECT_NAME    = SL-3 R/B
OBJECT_ID      = 1982-079B
CENTER_NAME    = EARTH
REF_FRAME      = TEME
TIME_SYSTEM    = UTC
MEAN_ELEMENT_THEORY = SGP/SGP4

EPOCH          = 2026-02-03T06:35:04.703136
MEAN_MOTION    = 15.24299950
ECCENTRICITY   = .00242426
INCLINATION    = 81.1436
RA_OF_ASC_NODE = 233.7026
ARG_OF_PERICENTER = 283.5177
MEAN_ANOMALY   = 76.3355

EPHEMERIS_TYPE = 0
CLASSIFICATION_TYPE = U
NORAD_CAT_ID   = 13403
ELEMENT_SET_NO = 999
REV_AT_EPOCH   = 37245
BSTAR          = .22990822E-3
MEAN_MOTION_DOT = .5689E-4
MEAN_MOTION_DDOT = 0

CCSDS_OMM_VERS = 2.0
CREATION_DATE  = 
ORIGINATOR     = 

OBJECT_NAME    = SL-14 R/B
OBJECT_ID      = 1982-092B
CENTER_NAME    = EARTH
REF_FRAME      = TEME
TIME_SYSTEM    = UTC
MEAN_ELEMENT_THEORY = SGP/SGP4

EPOCH          = 2026-02-03T04:30:30.612384
MEAN_MOTION    = 14.86625351
ECCENTRICITY   = .00216302
INCLINATION    = 82.5697
RA_OF_ASC_NODE = 173.6599
ARG_OF_PERICENTER = 58.0969
MEAN_ANOMALY   = 32.9985

EPHEMERIS_TYPE = 0
CLASSIFICATION_TYPE = U
NORAD_CAT_ID   = 13553
ELEMENT_SET_NO = 999
REV_AT_EPOCH   = 32380
BSTAR          = .65463599E-4
MEAN_MOTION_DOT = .608E-5
MEAN_MOTION_DDOT = 0

CCSDS_OMM_VERS = 2.0
CREATION_DATE  = 
ORIGINATOR     = 

OBJECT_NAME    = SL-3 R/B
OBJECT_ID      = 1983-010B
CENTER_NAME    = EARTH
REF_FRAME      = TEME
TIME_SYSTEM    = UTC
MEAN_ELEMENT_THEORY = SGP/SGP4

EPOCH          = 2026-02-03T01:30:05.110560
MEAN_MOTION    = 15.45129567
ECCENTRICITY   = .00175026
INCLINATION    = 81.1014
RA_OF_ASC_NODE = 44.6635
ARG_OF_PERICENTER = 162.1384
MEAN_ANOMALY   = 198.0479

EPHEMERIS_TYPE = 0
CLASSIFICATION_TYPE = U
NORAD_CAT_ID   = 13819
ELEMENT_SET_NO = 999
REV_AT_EPOCH   = 35259
BSTAR          = .30380588E-3
MEAN_MOTION_DOT = .14505E-3
MEAN_MOTION_DDOT = 0

CCSDS_OMM_VERS = 2.0
CREATION_DATE  = 
ORIGINATOR     = 

OBJECT_NAME    = SL-3 R/B
OBJECT_ID      = 1983-075B
CENTER_NAME    = EARTH
REF_FRAME      = TEME
TIME_SYSTEM    = UTC
MEAN_ELEMENT_THEORY = SGP/SGP4

EPOCH          = 2026-02-03T04:53:13.430688
MEAN_MOTION    = 15.37504127
ECCENTRICITY   = .0021953
INCLINATION    = 97.6121
RA_OF_ASC_NODE = 37.5053
ARG_OF_PERICENTER = 358.8916
MEAN_ANOMALY   = 1.2275

EPHEMERIS_TYPE = 0
CLASSIFICATION_TYPE = U
NORAD_CAT_ID   = 14208
ELEMENT_SET_NO = 999
REV_AT_EPOCH   = 32485
BSTAR          = .36623467E-3
MEAN_MOTION_DOT = .13501E-3
MEAN_MOTION_DDOT = 0

CCSDS_OMM_VERS = 2.0
CREATION_DATE  = 
ORIGINATOR     = 

OBJECT_NAME    = COSMOS 1536
OBJECT_ID      = 1984-013A
CENTER_NAME    = EARTH
REF_FRAME      = TEME
TIME_SYSTEM    = UTC
MEAN_ELEMENT_THEORY = SGP/SGP4

EPOCH          = 2026-02-03T01:01:23.189664
MEAN_MOTION    = 15.23345408
ECCENTRICITY   = .00152787
INCLINATION    = 82.5479
RA_OF_ASC_NODE = 142.2690
ARG_OF_PERICENTER = 48.8912
MEAN_ANOMALY   = 311.3641

EPHEMERIS_TYPE = 0
CLASSIFICATION_TYPE = U
NORAD_CAT_ID   = 14699
ELEMENT_SET_NO = 999
REV_AT_EPOCH   = 26734
BSTAR          = .31685684E-3
MEAN_MOTION_DOT = .7582E-4
MEAN_MOTION_DDOT = 0

CCSDS_OMM_VERS = 2.0
CREATION_DATE  = 
ORIGINATOR     = 

OBJECT_NAME    = SL-14 R/B
OBJECT_ID      = 1984-027B
CENTER_NAME    = EARTH
REF_FRAME      = TEME
TIME_SYSTEM    = UTC
MEAN_ELEMENT_THEORY = SGP/SGP4

EPOCH          = 2026-02-03T03:34:02.665344
MEAN_MOTION    = 14.85941514
ECCENTRICITY   = .00195572
INCLINATION    = 82.5410
RA_OF_ASC_NODE = 277.4143
ARG_OF_PERICENTER = 88.0108
MEAN_ANOMALY   = 272.3348

EPHEMERIS_TYPE = 0
CLASSIFICATION_TYPE = U
NORAD_CAT_ID   = 14820
ELEMENT_SET_NO = 999
REV_AT_EPOCH   = 24250
BSTAR          = .53102249E-4
MEAN_MOTION_DOT = .489E-5
MEAN_MOTION_DDOT = 0

CCSDS_OMM_VERS = 2.0
CREATION_DATE  = 
ORIGINATOR     = 

OBJECT_NAME    = SL-8 R/B
OBJECT_ID      = 1985-006B
CENTER_NAME    = EARTH
REF_FRAME      = TEME
TIME_SYSTEM    = UTC
MEAN_ELEMENT_THEORY = SGP/SGP4

EPOCH          = 2026-02-03T05:38:55.394304
MEAN_MOTION    = 14.37764739
ECCENTRICITY   = .00196109
INCLINATION    = 74.0475
RA_OF_ASC_NODE = 324.5455
ARG_OF_PERICENTER = 248.7847
MEAN_ANOMALY   = 273.2335

EPHEMERIS_TYPE = 0
CLASSIFICATION_TYPE = U
NORAD_CAT_ID   = 15483
ELEMENT_SET_NO = 999
REV_AT_EPOCH   = 14907
BSTAR          = .1072902E-3
MEAN_MOTION_DOT = .297E-5
MEAN_MOTION_DDOT = 0

CCSDS_OMM_VERS = 2.0
CREATION_DATE  = 
ORIGINATOR     = 

OBJECT_NAME    = SL-12 R/B(2)
OBJECT_ID      = 1985-042D
CENTER_NAME    = EARTH
REF_FRAME      = TEME
TIME_SYSTEM    = UTC
MEAN_ELEMENT_THEORY = SGP/SGP4

EPOCH          = 2026-02-02T17:58:43.192128
MEAN_MOTION    = 14.21971618
ECCENTRICITY   = .00353096
INCLINATION    = 71.1082
RA_OF_ASC_NODE = 161.5457
ARG_OF_PERICENTER = 183.7401
MEAN_ANOMALY   = 323.8294

EPHEMERIS_TYPE = 0
CLASSIFICATION_TYPE = U
NORAD_CAT_ID   = 15772
ELEMENT_SET_NO = 999
REV_AT_EPOCH   = 10942
BSTAR          = .69711222E-4
MEAN_MOTION_DOT = .107E-5
MEAN_MOTION_DDOT = 0

CCSDS_OMM_VERS = 2.0
CREATION_DATE  = 
ORIGINATOR     = 

OBJECT_NAME    = SL-14 R/B
OBJECT_ID      = 1985-069B
CENTER_NAME    = EARTH
REF_FRAME      = TEME
TIME_SYSTEM    = UTC
MEAN_ELEMENT_THEORY = SGP/SGP4

EPOCH          = 2026-02-03T03:27:11.228544
MEAN_MOTION    = 14.86391215
ECCENTRICITY   = .00175432
INCLINATION    = 82.5239
RA_OF_ASC_NODE = 57.4256
ARG_OF_PERICENTER = 310.1352
MEAN_ANOMALY   = 49.8326

EPHEMERIS_TYPE = 0
CLASSIFICATION_TYPE = U
NORAD_CAT_ID   = 15945
ELEMENT_SET_NO = 999
REV_AT_EPOCH   = 16770
BSTAR          = .55603908E-4
MEAN_MOTION_DOT = .516E-5
MEAN_MOTION_DDOT = 0

CCSDS_OMM_VERS = 2.0
CREATION_DATE  = 
ORIGINATOR     = 

OBJECT_NAME    = SL-16 R/B
OBJECT_ID      = 1985-097B
CENTER_NAME    = EARTH
REF_FRAME      = TEME
TIME_SYSTEM    = UTC
MEAN_ELEMENT_THEORY = SGP/SGP4

EPOCH          = 2026-02-03T06:24:45.697248
MEAN_MOTION    = 14.16595205
ECCENTRICITY   = .0009367
INCLINATION    = 71.0012
RA_OF_ASC_NODE = 213.0188
ARG_OF_PERICENTER = 300.1340
MEAN_ANOMALY   = 233.6253

EPHEMERIS_TYPE = 0
CLASSIFICATION_TYPE = U
NORAD_CAT_ID   = 16182
ELEMENT_SET_NO = 999
REV_AT_EPOCH   = 8235
BSTAR          = .12253329E-3
MEAN_MOTION_DOT = .197E-5
MEAN_MOTION_DDOT = 0

CCSDS_OMM_VERS = 2.0
CREATION_DATE  = 
ORIGINATOR     = 

OBJECT_NAME    = SL-14 R/B
OBJECT_ID      = 1986-006B
CENTER_NAME    = EARTH
REF_FRAME      = TEME
TIME_SYSTEM    = UTC
MEAN_ELEMENT_THEORY = SGP/SGP4

EPOCH          = 2026-02-03T03:07:12.391392
MEAN_MOTION    = 14.86764419
ECCENTRICITY   = .00774274
INCLINATION    = 82.5278
RA_OF_ASC_NODE = 292.2642
ARG_OF_PERICENTER = 28.3158
MEAN_ANOMALY   = 332.2233

EPHEMERIS_TYPE = 0
CLASSIFICATION_TYPE = U
NORAD_CAT_ID   = 16496
ELEMENT_SET_NO = 999
REV_AT_EPOCH   = 14407
BSTAR          = .86605723E-4
MEAN_MOTION_DOT = .841E-5
MEAN_MOTION_DDOT = 0

CCSDS_OMM_VERS = 2.0
CREATION_DATE  = 
ORIGINATOR     = 

OBJECT_NAME    = COSMOS 1743
OBJECT_ID      = 1986-034A
CENTER_NAME    = EARTH
REF_FRAME      = TEME
TIME_SYSTEM    = UTC
MEAN_ELEMENT_THEORY = SGP/SGP4

EPOCH          = 2026-02-03T06:20:32.995392
MEAN_MOTION    = 15.56033742
ECCENTRICITY   = .00053035
INCLINATION    = 82.5339
RA_OF_ASC_NODE = 109.8877
ARG_OF_PERICENTER = 67.0468
MEAN_ANOMALY   = 293.1346

EPHEMERIS_TYPE = 0
CLASSIFICATION_TYPE = U
NORAD_CAT_ID   = 16719
ELEMENT_SET_NO = 999
REV_AT_EPOCH   = 17489
BSTAR          = .51769457E-3
MEAN_MOTION_DOT = .36195E-3
MEAN_MOTION_DDOT = 0

